FENGYUN 1C DEB          
1 31780U 99025CGF 26069.93973774  .00004061  00000+0  57803-3 0  9992
2 31780  99.2968 239.7251 0149444 142.2005 218.9806 14.70121538997936
FENGYUN 1C DEB          
1 31781U 99025CGG 26069.71568146  .00005672  00000+0  24749-2 0  9993
2 31781  99.5024 251.1611 0194613  29.0658 332.1183 14.14703878695916
FENGYUN 1C DEB          
1 31782U 99025CGH 26073.41369919  .00001317  00000+0  44776-3 0  9998
2 31782  98.9144 242.7283 0079956  87.0354 304.3301 14.36543767980073
FENGYUN 1C DEB          
1 31783U 99025CGJ 26070.48504234  .00000969  00000+0  55443-3 0  9999
2 31783  98.6061  80.1580 0103726 157.1644 357.6535 14.09032453904708
FENGYUN 1C DEB          
1 31788U 99025CGP 26073.25965074  .00003815  00000+0  33731-2 0  9993
2 31788 102.5521 244.2576 0466523 244.6328 299.0410 13.45633129918358
FENGYUN 1C DEB          
1 31804U 99025CGS 26069.24716779  .00004281  00000+0  21259-2 0  9992
2 31804  98.2828 236.3760 0138033 251.6997 106.9118 14.12762129648974
FENGYUN 1C DEB          
1 31805U 99025CGT 26071.16485331  .00006218  00000+0  16333-2 0  9993
2 31805  98.3745  53.5796 0438714 264.9549  90.1420 14.04811468636183
FENGYUN 1C DEB          
1 31807U 99025CGV 26073.20636339  .00004026  00000+0  92776-3 0  9999
2 31807  99.0853 216.6124 0103512 247.6025 111.4175 14.52712904666334
FENGYUN 1C DEB          
1 31808U 99025CGW 26072.81156609  .00030071  00000+0  59137-2 0  9995
2 31808  99.2052 274.6929 0036881 224.8093 135.0125 14.62091991589317
FENGYUN 1C DEB          
1 31810U 99025CGY 26071.27025146  .00002403  00000+0  51739-3 0  9997
2 31810  98.2661  89.5096 0210979 227.5190 130.8005 14.46480101657080
FENGYUN 1C DEB          
1 31813U 99025CHB 26073.04541013  .00002080  00000+0  48796-3 0  9993
2 31813  99.4159 168.3182 0135917  63.6272 297.8800 14.50295678985795
FENGYUN 1C DEB          
1 31814U 99025CHC 26066.35843162  .00000590  00000+0  63922-3 0  9992
2 31814  99.5589 120.2951 0228489 358.6893   1.3626 13.66576773629555
FENGYUN 1C DEB          
1 31815U 99025CHD 26073.20327690  .00000035  00000+0  42955-4 0  9996
2 31815  98.7794  62.2992 0059696 121.8440 238.8561 14.10303348968282
FENGYUN 1C DEB          
1 31816U 99025CHE 26072.24809402  .00001794  00000+0  12991-2 0  9994
2 31816  98.9842 189.0986 0119677 265.5670 122.8099 13.94439332949558
FENGYUN 1C DEB          
1 31817U 99025CHF 26071.84103517  .00006535  00000+0  11379-2 0  9991
2 31817  98.9227  81.0002 0060469 156.3243 204.0762 14.67246767727264
FENGYUN 1C DEB          
1 31819U 99025CHH 26059.93615514  .00000953  00000+0  36713-3 0  9992
2 31819  98.4816  54.2450 0088478  89.1467 271.9852 14.30347790978118
