[{"OBJECT_NAME":"FENGYUN 1C DEB","OBJECT_ID":"1999-025CGF","EPOCH":"2026-03-10T22:33:13.340736","MEAN_MOTION":14.70121538,"ECCENTRICITY":0.0149444,"INCLINATION":99.2968,"RA_OF_ASC_NODE":239.7251,"ARG_OF_PERICENTER":142.2005,"MEAN_ANOMALY":218.9806,"EPHEMERIS_TYPE":0,"CLASSIFICATION_TYPE":"U","NORAD_CAT_ID":31780,"ELEMENT_SET_NO":999,"REV_AT_EPOCH":99793,"BSTAR":0.00057803,"MEAN_MOTION_DOT":4.061e-5,"MEAN_MOTION_DDOT":0},{"OBJECT_NAME":"FENGYUN 1C DEB","OBJECT_ID":"1999-025CGG","EPOCH":"2026-03-10T17:10:34.878144","MEAN_MOTION":14.14703878,"ECCENTRICITY":0.01946139,"INCLINATION":99.5024,"RA_OF_ASC_NODE":251.1611,"ARG_OF_PERICENTER":29.0658,"MEAN_ANOMALY":332.1183,"EPHEMERIS_TYPE":0,"CLASSIFICATION_TYPE":"U","NORAD_CAT_ID":31781,"ELEMENT_SET_NO":999,"REV_AT_EPOCH":69591,"BSTAR":0.0024748679,"MEAN_MOTION_DOT":5.672e-5,"MEAN_MOTION_DDOT":0},{"OBJECT_NAME":"FENGYUN 1C DEB","OBJECT_ID":"1999-025CGH","EPOCH":"2026-03-14T09:55:43.610016","MEAN_MOTION":14.36543767,"ECCENTRICITY":0.0079956,"INCLINATION":98.9144,"RA_OF_ASC_NODE":242.7283,"ARG_OF_PERICENTER":87.0354,"MEAN_ANOMALY":304.3301,"EPHEMERIS_TYPE":0,"CLASSIFICATION_TYPE":"U","NORAD_CAT_ID":31782,"ELEMENT_SET_NO":999,"REV_AT_EPOCH":98007,"BSTAR":0.00044775981,"MEAN_MOTION_DOT":1.317e-5,"MEAN_MOTION_DDOT":0},{"OBJECT_NAME":"FENGYUN 1C DEB","OBJECT_ID":"1999-025CGJ","EPOCH":"2026-03-11T11:38:27.658176","MEAN_MOTION":14.09032453,"ECCENTRICITY":0.01037261,"INCLINATION":98.6061,"RA_OF_ASC_NODE":80.158,"ARG_OF_PERICENTER":157.1644,"MEAN_ANOMALY":357.6535,"EPHEMERIS_TYPE":0,"CLASSIFICATION_TYPE":"U","NORAD_CAT_ID":31783,"ELEMENT_SET_NO":999,"REV_AT_EPOCH":90470,"BSTAR":0.0005544302,"MEAN_MOTION_DOT":9.69e-6,"MEAN_MOTION_DDOT":0},{"OBJECT_NAME":"FENGYUN 1C DEB","OBJECT_ID":"1999-025CGP","EPOCH":"2026-03-14T06:13:53.823936","MEAN_MOTION":13.45633129,"ECCENTRICITY":0.04665234,"INCLINATION":102.5521,"RA_OF_ASC_NODE":244.2576,"ARG_OF_PERICENTER":244.6328,"MEAN_ANOMALY":299.041,"EPHEMERIS_TYPE":0,"CLASSIFICATION_TYPE":"U","NORAD_CAT_ID":31788,"ELEMENT_SET_NO":999,"REV_AT_EPOCH":91835,"BSTAR":0.0033731067,"MEAN_MOTION_DOT":3.815e-5,"MEAN_MOTION_DDOT":0},{"OBJECT_NAME":"FENGYUN 1C DEB","OBJECT_ID":"1999-025CGS","EPOCH":"2026-03-10T05:55:55.297056","MEAN_MOTION":14.12762129,"ECCENTRICITY":0.0138033,"INCLINATION":98.2828,"RA_OF_ASC_NODE":236.376,"ARG_OF_PERICENTER":251.6997,"MEAN_ANOMALY":106.9118,"EPHEMERIS_TYPE":0,"CLASSIFICATION_TYPE":"U","NORAD_CAT_ID":31804,"ELEMENT_SET_NO":999,"REV_AT_EPOCH":64897,"BSTAR":0.0021259,"MEAN_MOTION_DOT":4.281e-5,"MEAN_MOTION_DDOT":0},{"OBJECT_NAME":"FENGYUN 1C DEB","OBJECT_ID":"1999-025CGT","EPOCH":"2026-03-12T03:57:23.325984","MEAN_MOTION":14.04811468,"ECCENTRICITY":0.0438714,"INCLINATION":98.3745,"RA_OF_ASC_NODE":53.5796,"ARG_OF_PERICENTER":264.9549,"MEAN_ANOMALY":90.142,"EPHEMERIS_TYPE":0,"CLASSIFICATION_TYPE":"U","NORAD_CAT_ID":31805,"ELEMENT_SET_NO":999,"REV_AT_EPOCH":63618,"BSTAR":0.0016333,"MEAN_MOTION_DOT":6.218e-5,"MEAN_MOTION_DDOT":0},{"OBJECT_NAME":"FENGYUN 1C DEB","OBJECT_ID":"1999-025CGV","EPOCH":"2026-03-14T04:57:09.796896","MEAN_MOTION":14.52712904,"ECCENTRICITY":0.01035121,"INCLINATION":99.0853,"RA_OF_ASC_NODE":216.6124,"ARG_OF_PERICENTER":247.6025,"MEAN_ANOMALY":111.4175,"EPHEMERIS_TYPE":0,"CLASSIFICATION_TYPE":"U","NORAD_CAT_ID":31807,"ELEMENT_SET_NO":999,"REV_AT_EPOCH":66633,"BSTAR":0.0009277644,"MEAN_MOTION_DOT":4.026e-5,"MEAN_MOTION_DDOT":0},{"OBJECT_NAME":"FENGYUN 1C DEB","OBJECT_ID":"1999-025CGW","EPOCH":"2026-03-13T19:28:39.310176","MEAN_MOTION":14.62091991,"ECCENTRICITY":0.0036881,"INCLINATION":99.2052,"RA_OF_ASC_NODE":274.6929,"ARG_OF_PERICENTER":224.8093,"MEAN_ANOMALY":135.0125,"EPHEMERIS_TYPE":0,"CLASSIFICATION_TYPE":"U","NORAD_CAT_ID":31808,"ELEMENT_SET_NO":999,"REV_AT_EPOCH":58931,"BSTAR":0.0059136705,"MEAN_MOTION_DOT":0.00030071,"MEAN_MOTION_DDOT":0},{"OBJECT_NAME":"FENGYUN 1C DEB","OBJECT_ID":"1999-025CGY","EPOCH":"2026-03-12T06:29:09.726144","MEAN_MOTION":14.46480101,"ECCENTRICITY":0.0210979,"INCLINATION":98.2661,"RA_OF_ASC_NODE":89.5096,"ARG_OF_PERICENTER":227.519,"MEAN_ANOMALY":130.8005,"EPHEMERIS_TYPE":0,"CLASSIFICATION_TYPE":"U","NORAD_CAT_ID":31810,"ELEMENT_SET_NO":999,"REV_AT_EPOCH":65708,"BSTAR":0.00051739,"MEAN_MOTION_DOT":2.403e-5,"MEAN_MOTION_DDOT":0},{"OBJECT_NAME":"FENGYUN 1C DEB","OBJECT_ID":"1999-025CHB","EPOCH":"2026-03-14T01:05:23.435232","MEAN_MOTION":14.50295678,"ECCENTRICITY":0.01359176,"INCLINATION":99.4159,"RA_OF_ASC_NODE":168.3182,"ARG_OF_PERICENTER":63.6272,"MEAN_ANOMALY":297.88,"EPHEMERIS_TYPE":0,"CLASSIFICATION_TYPE":"U","NORAD_CAT_ID":31813,"ELEMENT_SET_NO":999,"REV_AT_EPOCH":98579,"BSTAR":0.00048795546,"MEAN_MOTION_DOT":2.08e-5,"MEAN_MOTION_DDOT":0},{"OBJECT_NAME":"FENGYUN 1C DEB","OBJECT_ID":"1999-025CHC","EPOCH":"2026-03-07T08:36:08.491968","MEAN_MOTION":13.66576773,"ECCENTRICITY":0.02284899,"INCLINATION":99.5589,"RA_OF_ASC_NODE":120.2951,"ARG_OF_PERICENTER":358.6893,"MEAN_ANOMALY":1.3626,"EPHEMERIS_TYPE":0,"CLASSIFICATION_TYPE":"U","NORAD_CAT_ID":31814,"ELEMENT_SET_NO":999,"REV_AT_EPOCH":62955,"BSTAR":0.00063922457,"MEAN_MOTION_DOT":5.9e-6,"MEAN_MOTION_DDOT":0},{"OBJECT_NAME":"FENGYUN 1C DEB","OBJECT_ID":"1999-025CHD","EPOCH":"2026-03-14T04:52:43.124160","MEAN_MOTION":14.10303348,"ECCENTRICITY":0.0059696,"INCLINATION":98.7794,"RA_OF_ASC_NODE":62.2992,"ARG_OF_PERICENTER":121.844,"MEAN_ANOMALY":238.8561,"EPHEMERIS_TYPE":0,"CLASSIFICATION_TYPE":"U","NORAD_CAT_ID":31815,"ELEMENT_SET_NO":999,"REV_AT_EPOCH":96828,"BSTAR":4.2954646e-5,"MEAN_MOTION_DOT":3.5e-7,"MEAN_MOTION_DDOT":0},{"OBJECT_NAME":"FENGYUN 1C DEB","OBJECT_ID":"1999-025CHE","EPOCH":"2026-03-13T05:57:15.323328","MEAN_MOTION":13.94439332,"ECCENTRICITY":0.01196775,"INCLINATION":98.9842,"RA_OF_ASC_NODE":189.0986,"ARG_OF_PERICENTER":265.567,"MEAN_ANOMALY":122.8099,"EPHEMERIS_TYPE":0,"CLASSIFICATION_TYPE":"U","NORAD_CAT_ID":31816,"ELEMENT_SET_NO":999,"REV_AT_EPOCH":94955,"BSTAR":0.0012990833,"MEAN_MOTION_DOT":1.794e-5,"MEAN_MOTION_DDOT":0},{"OBJECT_NAME":"FENGYUN 1C DEB","OBJECT_ID":"1999-025CHF","EPOCH":"2026-03-12T20:11:05.438688","MEAN_MOTION":14.67246767,"ECCENTRICITY":0.00604694,"INCLINATION":98.9227,"RA_OF_ASC_NODE":81.0002,"ARG_OF_PERICENTER":156.3243,"MEAN_ANOMALY":204.0762,"EPHEMERIS_TYPE":0,"CLASSIFICATION_TYPE":"U","NORAD_CAT_ID":31817,"ELEMENT_SET_NO":999,"REV_AT_EPOCH":72726,"BSTAR":0.001137904,"MEAN_MOTION_DOT":6.535e-5,"MEAN_MOTION_DDOT":0},{"OBJECT_NAME":"FENGYUN 1C DEB","OBJECT_ID":"1999-025CHH","EPOCH":"2026-02-28T22:28:03.804096","MEAN_MOTION":14.3034779,"ECCENTRICITY":0.0088478,"INCLINATION":98.4816,"RA_OF_ASC_NODE":54.245,"ARG_OF_PERICENTER":89.1467,"MEAN_ANOMALY":271.9852,"EPHEMERIS_TYPE":0,"CLASSIFICATION_TYPE":"U","NORAD_CAT_ID":31819,"ELEMENT_SET_NO":999,"REV_AT_EPOCH":97811,"BSTAR":0.00036713,"MEAN_MOTION_DOT":9.53e-6,"MEAN_MOTION_DDOT":0}]
